ONEWEB-0199             
1 48234U 21031AA  24298.76825226  .00000287  00000+0  73944-3 0  9997
2 48234  87.9017  49.0847 0001844 103.0242 257.1094 13.14500943169381
ONEWEB-0203             
1 48235U 21031AB  24298.75873945  .00000183  00000+0  45863-3 0  9992
2 48235  87.9017  49.0884 0002079  96.8774 263.2592 13.14500547169395
ONEWEB-0197             
1 48236U 21031AC  24298.73415759 -.00000078  00000+0 -24482-3 0  9995
2 48236  87.9018  49.1030 0001548 110.6044 249.5252 13.14501428169306
ONEWEB-0194             
1 48237U 21031AD  24298.71274551 -.00000098  00000+0 -29991-3 0  9999
2 48237  87.9019  49.1008 0001961 100.9765 259.1585 13.14500232169470
ONEWEB-0193             
1 48238U 21031AE  24298.72860458 -.00000200  00000+0 -57414-3 0  9994
2 48238  87.9016  49.1056 0001759  96.4657 263.6673 13.14502140169428
ONEWEB-0191             
1 48239U 21031AF  24298.73970777 -.00000010  00000+0 -60538-4 0  9993
2 48239  87.9016  49.0838 0001760  96.9635 263.1695 13.14501946169285
ONEWEB-0195             
1 48240U 21031AG  24298.71671878 -.00000102  00000+0 -31058-3 0  9999
2 48240  87.9017  49.0868 0001656  86.2491 273.8828 13.14501953169269
ONEWEB-0201             
1 48241U 21031AH  24298.70561565  .00000016  00000+0  82322-5 0  9994
2 48241  87.9020  49.1278 0001552  95.7585 264.3721 13.14502949169492
